{
  "type": "FeatureCollection",
  "features": [
    {
      "type": "Feature",
      "properties": {
        "norad_id": 36994,
        "name": "FENGYUN 1C DEB",
        "group": "fengyun-1c-debris",
        "lat": -81.13461601713661,
        "lon": 17.43557168647072,
        "alt_km": 875.5625600446501,
        "timestamp": "2025-12-03T08:58:46.290836+00:00",
        "meta_object_name": "FENGYUN 1C DEB",
        "meta_object_id": "1999-025ECA",
        "meta_epoch": "2025-12-02T04:02:29.947488",
        "meta_mean_motion": 13.90778611,
        "meta_eccentricity": 0.01150307,
        "meta_inclination": 98.6418,
        "meta_ra_of_asc_node": 299.1542,
        "meta_arg_of_pericenter": 322.4253,
        "meta_mean_anomaly": 36.8909,
        "meta_ephemeris_type": 0,
        "meta_classification_type": "U",
        "meta_norad_cat_id": 36994,
        "meta_element_set_no": 999,
        "meta_rev_at_epoch": 80760,
        "meta_bstar": 0.00021509724,
        "meta_mean_motion_dot": 2.43e-06,
        "meta_mean_motion_ddot": 0,
        "tle_line1": "1 36994U 99025ECA 25336.16840217  .00000243  00000+0  21510-3 0  9994",
        "tle_line2": "2 36994  98.6418 299.1542 0115030 322.4253  36.8909 13.90778611807601"
      },
      "geometry": {
        "type": "Point",
        "coordinates": [
          17.43557168647072,
          -81.13461601713661
        ]
      }
    },
    {
      "type": "Feature",
      "properties": {
        "norad_id": 36995,
        "name": "FENGYUN 1C DEB",
        "group": "fengyun-1c-debris",
        "lat": 62.54550982752149,
        "lon": -159.5788361135916,
        "alt_km": 868.5747219607119,
        "timestamp": "2025-12-03T08:58:46.290846+00:00",
        "meta_object_name": "FENGYUN 1C DEB",
        "meta_object_id": "1999-025ECB",
        "meta_epoch": "2025-12-02T22:25:21.665856",
        "meta_mean_motion": 14.04865575,
        "meta_eccentricity": 0.0039049,
        "meta_inclination": 98.3441,
        "meta_ra_of_asc_node": 216.4246,
        "meta_arg_of_pericenter": 339.4801,
        "meta_mean_anomaly": 20.4798,
        "meta_ephemeris_type": 0,
        "meta_classification_type": "U",
        "meta_norad_cat_id": 36995,
        "meta_element_set_no": 999,
        "meta_rev_at_epoch": 63419,
        "meta_bstar": 4.8277e-05,
        "meta_mean_motion_dot": 3.9e-07,
        "meta_mean_motion_ddot": 0,
        "tle_line1": "1 36995U 99025ECB 25336.93427854  .00000039  00000+0  48277-4 0  9991",
        "tle_line2": "2 36995  98.3441 216.4246 0039049 339.4801  20.4798 14.04865575634199"
      },
      "geometry": {
        "type": "Point",
        "coordinates": [
          -159.5788361135916,
          62.54550982752149
        ]
      }
    },
    {
      "type": "Feature",
      "properties": {
        "norad_id": 36996,
        "name": "FENGYUN 1C DEB",
        "group": "fengyun-1c-debris",
        "lat": -53.47794159985723,
        "lon": 141.63699347223647,
        "alt_km": 795.1805181918226,
        "timestamp": "2025-12-03T08:58:46.290856+00:00",
        "meta_object_name": "FENGYUN 1C DEB",
        "meta_object_id": "1999-025ECC",
        "meta_epoch": "2025-11-27T05:46:51.154176",
        "meta_mean_motion": 14.11461211,
        "meta_eccentricity": 0.02552856,
        "meta_inclination": 98.2247,
        "meta_ra_of_asc_node": 124.7451,
        "meta_arg_of_pericenter": 33.8599,
        "meta_mean_anomaly": 87.2847,
        "meta_ephemeris_type": 0,
        "meta_classification_type": "U",
        "meta_norad_cat_id": 36996,
        "meta_element_set_no": 999,
        "meta_rev_at_epoch": 59473,
        "meta_bstar": 0.00085126792,
        "meta_mean_motion_dot": 2.056e-05,
        "meta_mean_motion_ddot": 0,
        "tle_line1": "1 36996U 99025ECC 25331.24086984  .00002056  00000+0  85127-3 0  9991",
        "tle_line2": "2 36996  98.2247 124.7451 0255285  33.8599  87.2847 14.11461211594731"
      },
      "geometry": {
        "type": "Point",
        "coordinates": [
          141.63699347223647,
          -53.47794159985723
        ]
      }
    },
    {
      "type": "Feature",
      "properties": {
        "norad_id": 37003,
        "name": "FENGYUN 1C DEB",
        "group": "fengyun-1c-debris",
        "lat": 25.400416647138268,
        "lon": -174.39638525412104,
        "alt_km": 847.4402276089213,
        "timestamp": "2025-12-03T08:58:46.290867+00:00",
        "meta_object_name": "FENGYUN 1C DEB",
        "meta_object_id": "1999-025ECK",
        "meta_epoch": "2025-11-29T08:00:12.278880",
        "meta_mean_motion": 13.96183433,
        "meta_eccentricity": 0.00964489,
        "meta_inclination": 98.8482,
        "meta_ra_of_asc_node": 357.4784,
        "meta_arg_of_pericenter": 198.9753,
        "meta_mean_anomaly": 177.4394,
        "meta_ephemeris_type": 0,
        "meta_classification_type": "U",
        "meta_norad_cat_id": 37003,
        "meta_element_set_no": 999,
        "meta_rev_at_epoch": 60470,
        "meta_bstar": 0.00050828845,
        "meta_mean_motion_dot": 6.84e-06,
        "meta_mean_motion_ddot": 0,
        "tle_line1": "1 37003U 99025ECK 25333.33347545  .00000684  00000+0  50829-3 0  9992",
        "tle_line2": "2 37003  98.8482 357.4784 0096448 198.9753 177.4394 13.96183433604708"
      },
      "geometry": {
        "type": "Point",
        "coordinates": [
          -174.39638525412104,
          25.400416647138268
        ]
      }
    },
    {
      "type": "Feature",
      "properties": {
        "norad_id": 37006,
        "name": "FENGYUN 1C DEB",
        "group": "fengyun-1c-debris",
        "lat": 37.52783695790112,
        "lon": 52.206885068511966,
        "alt_km": 851.6218222783882,
        "timestamp": "2025-12-03T08:58:46.290877+00:00",
        "meta_object_name": "FENGYUN 1C DEB",
        "meta_object_id": "1999-025ECN",
        "meta_epoch": "2025-11-30T22:17:22.604640",
        "meta_mean_motion": 14.48720025,
        "meta_eccentricity": 0.02561349,
        "meta_inclination": 99.2981,
        "meta_ra_of_asc_node": 222.2839,
        "meta_arg_of_pericenter": 283.324,
        "meta_mean_anomaly": 73.9509,
        "meta_ephemeris_type": 0,
        "meta_classification_type": "U",
        "meta_norad_cat_id": 37006,
        "meta_element_set_no": 999,
        "meta_rev_at_epoch": 64943,
        "meta_bstar": 0.00098281369,
        "meta_mean_motion_dot": 5.562e-05,
        "meta_mean_motion_ddot": 0,
        "tle_line1": "1 37006U 99025ECN 25334.92873385  .00005562  00000+0  98281-3 0  9991",
        "tle_line2": "2 37006  99.2981 222.2839 0256134 283.3240  73.9509 14.48720025649439"
      },
      "geometry": {
        "type": "Point",
        "coordinates": [
          52.206885068511966,
          37.52783695790112
        ]
      }
    },
    {
      "type": "Feature",
      "properties": {
        "norad_id": 37008,
        "name": "FENGYUN 1C DEB",
        "group": "fengyun-1c-debris",
        "lat": 54.91544474236306,
        "lon": -70.64249292974303,
        "alt_km": 901.8377536146972,
        "timestamp": "2025-12-03T08:58:46.290887+00:00",
        "meta_object_name": "FENGYUN 1C DEB",
        "meta_object_id": "1999-025ECQ",
        "meta_epoch": "2025-12-02T13:37:33.540384",
        "meta_mean_motion": 14.07860462,
        "meta_eccentricity": 0.00612749,
        "meta_inclination": 99.1351,
        "meta_ra_of_asc_node": 95.2994,
        "meta_arg_of_pericenter": 281.9104,
        "meta_mean_anomaly": 77.5198,
        "meta_ephemeris_type": 0,
        "meta_classification_type": "U",
        "meta_norad_cat_id": 37008,
        "meta_element_set_no": 999,
        "meta_rev_at_epoch": 60171,
        "meta_bstar": 0.0015511862,
        "meta_mean_motion_dot": 2.631e-05,
        "meta_mean_motion_ddot": 0,
        "tle_line1": "1 37008U 99025ECQ 25336.56774931  .00002631  00000+0  15512-2 0  9991",
        "tle_line2": "2 37008  99.1351  95.2994 0061274 281.9104  77.5198 14.07860462601711"
      },
      "geometry": {
        "type": "Point",
        "coordinates": [
          -70.64249292974303,
          54.91544474236306
        ]
      }
    },
    {
      "type": "Feature",
      "properties": {
        "norad_id": 37017,
        "name": "FENGYUN 1C DEB",
        "group": "fengyun-1c-debris",
        "lat": 69.69922902168005,
        "lon": -103.1018268727207,
        "alt_km": 589.9888164940894,
        "timestamp": "2025-12-03T08:58:46.290897+00:00",
        "meta_object_name": "FENGYUN 1C DEB",
        "meta_object_id": "1999-025ECZ",
        "meta_epoch": "2025-12-02T02:39:25.684416",
        "meta_mean_motion": 14.40374122,
        "meta_eccentricity": 0.02839314,
        "meta_inclination": 98.7881,
        "meta_ra_of_asc_node": 280.3191,
        "meta_arg_of_pericenter": 36.7665,
        "meta_mean_anomaly": 325.2632,
        "meta_ephemeris_type": 0,
        "meta_classification_type": "U",
        "meta_norad_cat_id": 37017,
        "meta_element_set_no": 999,
        "meta_rev_at_epoch": 61008,
        "meta_bstar": 0.0019565669,
        "meta_mean_motion_dot": 9.982e-05,
        "meta_mean_motion_ddot": 0,
        "tle_line1": "1 37017U 99025ECZ 25336.11071394  .00009982  00000+0  19566-2 0  9994",
        "tle_line2": "2 37017  98.7881 280.3191 0283931  36.7665 325.2632 14.40374122610080"
      },
      "geometry": {
        "type": "Point",
        "coordinates": [
          -103.1018268727207,
          69.69922902168005
        ]
      }
    }
  ]
}